[{"OBJECT_NAME":"TIANQI-27","OBJECT_ID":"2024-102C","EPOCH":"2026-03-09T22:22:51.077568","MEAN_MOTION":13.99134937,"ECCENTRICITY":0.00055536,"INCLINATION":44.9799,"RA_OF_ASC_NODE":343.079,"ARG_OF_PERICENTER":146.4179,"MEAN_ANOMALY":213.7006,"EPHEMERIS_TYPE":0,"CLASSIFICATION_TYPE":"U","NORAD_CAT_ID":59911,"ELEMENT_SET_NO":999,"REV_AT_EPOCH":9100,"BSTAR":0.00025003711,"MEAN_MOTION_DOT":2.36e-6,"MEAN_MOTION_DDOT":0},{"OBJECT_NAME":"SS-18 R\/B","OBJECT_ID":"1999-021C","EPOCH":"2026-03-09T09:15:45.322272","MEAN_MOTION":13.73024449,"ECCENTRICITY":0.05595907,"INCLINATION":64.5537,"RA_OF_ASC_NODE":57.4722,"ARG_OF_PERICENTER":331.1631,"MEAN_ANOMALY":25.9515,"EPHEMERIS_TYPE":0,"CLASSIFICATION_TYPE":"U","NORAD_CAT_ID":25695,"ELEMENT_SET_NO":999,"REV_AT_EPOCH":34627,"BSTAR":0.00018610859,"MEAN_MOTION_DOT":4.28e-6,"MEAN_MOTION_DDOT":0}]
